{
  "type": "FeatureCollection",
  "features": [
    {
      "type": "Feature",
      "properties": {
        "norad_id": 37867,
        "name": "COSMOS 2476 (744)",
        "group": "glo-ops",
        "lat": 58.46836120575756,
        "lon": -149.90195932629575,
        "alt_km": 19158.61741853466,
        "timestamp": "2025-12-18T10:51:26.067031+00:00",
        "meta_object_name": "COSMOS 2476 (744)",
        "meta_object_id": "2011-064A",
        "meta_epoch": "2025-12-17T08:37:38.728128",
        "meta_mean_motion": 2.13103706,
        "meta_eccentricity": 0.00243783,
        "meta_inclination": 65.1645,
        "meta_ra_of_asc_node": 79.0153,
        "meta_arg_of_pericenter": 234.8774,
        "meta_mean_anomaly": 116.9996,
        "meta_ephemeris_type": 0,
        "meta_classification_type": "U",
        "meta_norad_cat_id": 37867,
        "meta_element_set_no": 999,
        "meta_rev_at_epoch": 10988,
        "meta_bstar": 0,
        "meta_mean_motion_dot": -4.8e-07,
        "meta_mean_motion_ddot": 0,
        "tle_line1": "1 37867U 11064A   25351.35947602 -.00000048  00000+0  00000+0 0  9996",
        "tle_line2": "2 37867  65.1645  79.0153 0024378 234.8774 116.9996  2.13103706109884"
      },
      "geometry": {
        "type": "Point",
        "coordinates": [
          -149.90195932629575,
          58.46836120575756
        ]
      }
    },
    {
      "type": "Feature",
      "properties": {
        "norad_id": 37868,
        "name": "COSMOS 2477 (745)",
        "group": "glo-ops",
        "lat": -57.6681237293686,
        "lon": 32.16854600220243,
        "alt_km": 19106.404858431513,
        "timestamp": "2025-12-18T10:51:26.067049+00:00",
        "meta_object_name": "COSMOS 2477 (745)",
        "meta_object_id": "2011-064B",
        "meta_epoch": "2025-12-17T02:26:26.820384",
        "meta_mean_motion": 2.13102893,
        "meta_eccentricity": 0.0021195,
        "meta_inclination": 65.1716,
        "meta_ra_of_asc_node": 79.1012,
        "meta_arg_of_pericenter": 234.7168,
        "meta_mean_anomaly": 100.3174,
        "meta_ephemeris_type": 0,
        "meta_classification_type": "U",
        "meta_norad_cat_id": 37868,
        "meta_element_set_no": 999,
        "meta_rev_at_epoch": 10987,
        "meta_bstar": 0,
        "meta_mean_motion_dot": -5e-07,
        "meta_mean_motion_ddot": 0,
        "tle_line1": "1 37868U 11064B   25351.10169931 -.00000050  00000+0  00000+0 0  9994",
        "tle_line2": "2 37868  65.1716  79.1012 0021195 234.7168 100.3174  2.13102893109879"
      },
      "geometry": {
        "type": "Point",
        "coordinates": [
          32.16854600220243,
          -57.6681237293686
        ]
      }
    },
    {
      "type": "Feature",
      "properties": {
        "norad_id": 37869,
        "name": "COSMOS 2475 (743)",
        "group": "glo-ops",
        "lat": -56.7902591315642,
        "lon": -56.02682771167118,
        "alt_km": 19068.94448318589,
        "timestamp": "2025-12-18T10:51:26.067074+00:00",
        "meta_object_name": "COSMOS 2475 (743)",
        "meta_object_id": "2011-064C",
        "meta_epoch": "2025-12-16T17:15:16.173216",
        "meta_mean_motion": 2.1310159,
        "meta_eccentricity": 0.00263578,
        "meta_inclination": 65.1784,
        "meta_ra_of_asc_node": 79.1342,
        "meta_arg_of_pericenter": 248.7608,
        "meta_mean_anomaly": 108.5583,
        "meta_ephemeris_type": 0,
        "meta_classification_type": "U",
        "meta_norad_cat_id": 37869,
        "meta_element_set_no": 999,
        "meta_rev_at_epoch": 10987,
        "meta_bstar": 0,
        "meta_mean_motion_dot": -5.2e-07,
        "meta_mean_motion_ddot": 0,
        "tle_line1": "1 37869U 11064C   25350.71893719 -.00000052  00000+0  00000+0 0  9991",
        "tle_line2": "2 37869  65.1784  79.1342 0026357 248.7608 108.5583  2.13101590109877"
      },
      "geometry": {
        "type": "Point",
        "coordinates": [
          -56.02682771167118,
          -56.7902591315642
        ]
      }
    },
    {
      "type": "Feature",
      "properties": {
        "norad_id": 39155,
        "name": "COSMOS 2485 (747)",
        "group": "glo-ops",
        "lat": 19.546287302891365,
        "lon": -109.69590919515612,
        "alt_km": 19107.586255657912,
        "timestamp": "2025-12-18T10:51:26.067095+00:00",
        "meta_object_name": "COSMOS 2485 (747)",
        "meta_object_id": "2013-019A",
        "meta_epoch": "2025-12-17T07:21:50.321088",
        "meta_mean_motion": 2.13103137,
        "meta_eccentricity": 0.00247401,
        "meta_inclination": 65.3162,
        "meta_ra_of_asc_node": 79.7134,
        "meta_arg_of_pericenter": 229.9478,
        "meta_mean_anomaly": 129.8522,
        "meta_ephemeris_type": 0,
        "meta_classification_type": "U",
        "meta_norad_cat_id": 39155,
        "meta_element_set_no": 999,
        "meta_rev_at_epoch": 9840,
        "meta_bstar": 0,
        "meta_mean_motion_dot": -4.8e-07,
        "meta_mean_motion_ddot": 0,
        "tle_line1": "1 39155U 13019A   25351.30683242 -.00000048  00000+0  00000+0 0  9992",
        "tle_line2": "2 39155  65.3162  79.7134 0024740 229.9478 129.8522  2.13103137 98408"
      },
      "geometry": {
        "type": "Point",
        "coordinates": [
          -109.69590919515612,
          19.546287302891365
        ]
      }
    },
    {
      "type": "Feature",
      "properties": {
        "norad_id": 39620,
        "name": "COSMOS 2492 (754)",
        "group": "glo-ops",
        "lat": -9.434424810197383,
        "lon": 144.4249325055175,
        "alt_km": 19151.194868092312,
        "timestamp": "2025-12-18T10:51:26.067108+00:00",
        "meta_object_name": "COSMOS 2492 (754)",
        "meta_object_id": "2014-012A",
        "meta_epoch": "2025-12-16T07:50:46.447872",
        "meta_mean_motion": 2.13103282,
        "meta_eccentricity": 0.00142536,
        "meta_inclination": 65.4058,
        "meta_ra_of_asc_node": 320.149,
        "meta_arg_of_pericenter": 313.159,
        "meta_mean_anomaly": 46.7158,
        "meta_ephemeris_type": 0,
        "meta_classification_type": "U",
        "meta_norad_cat_id": 39620,
        "meta_element_set_no": 999,
        "meta_rev_at_epoch": 9134,
        "meta_bstar": 0,
        "meta_mean_motion_dot": -6.8e-07,
        "meta_mean_motion_ddot": 0,
        "tle_line1": "1 39620U 14012A   25350.32692648 -.00000068  00000+0  00000+0 0  9996",
        "tle_line2": "2 39620  65.4058 320.1490 0014253 313.1590  46.7158  2.13103282 91346"
      },
      "geometry": {
        "type": "Point",
        "coordinates": [
          144.4249325055175,
          -9.434424810197383
        ]
      }
    },
    {
      "type": "Feature",
      "properties": {
        "norad_id": 40001,
        "name": "COSMOS 2500 (755)",
        "group": "glo-ops",
        "lat": 50.75851517261264,
        "lon": -5.964434594864671,
        "alt_km": 19143.23591092382,
        "timestamp": "2025-12-18T10:51:26.067120+00:00",
        "meta_object_name": "COSMOS 2500 (755)",
        "meta_object_id": "2014-032A",
        "meta_epoch": "2025-12-16T23:14:23.843328",
        "meta_mean_motion": 2.13106023,
        "meta_eccentricity": 0.00080797,
        "meta_inclination": 65.3407,
        "meta_ra_of_asc_node": 319.8884,
        "meta_arg_of_pericenter": 219.086,
        "meta_mean_anomaly": 140.8487,
        "meta_ephemeris_type": 0,
        "meta_classification_type": "U",
        "meta_norad_cat_id": 40001,
        "meta_element_set_no": 999,
        "meta_rev_at_epoch": 8957,
        "meta_bstar": 0,
        "meta_mean_motion_dot": -6.8e-07,
        "meta_mean_motion_ddot": 0,
        "tle_line1": "1 40001U 14032A   25350.96833152 -.00000068  00000+0  00000+0 0  9990",
        "tle_line2": "2 40001  65.3407 319.8884 0008079 219.0860 140.8487  2.13106023 89572"
      },
      "geometry": {
        "type": "Point",
        "coordinates": [
          -5.964434594864671,
          50.75851517261264
        ]
      }
    },
    {
      "type": "Feature",
      "properties": {
        "norad_id": 40315,
        "name": "COSMOS 2501 (702K)",
        "group": "glo-ops",
        "lat": -34.48773603089975,
        "lon": 36.57821208426258,
        "alt_km": 19084.752209684582,
        "timestamp": "2025-12-18T10:51:26.067131+00:00",
        "meta_object_name": "COSMOS 2501 (702K)",
        "meta_object_id": "2014-075A",
        "meta_epoch": "2025-12-14T09:54:07.365600",
        "meta_mean_motion": 2.13101427,
        "meta_eccentricity": 0.00201134,
        "meta_inclination": 63.6139,
        "meta_ra_of_asc_node": 196.7672,
        "meta_arg_of_pericenter": 204.2903,
        "meta_mean_anomaly": 155.6894,
        "meta_ephemeris_type": 0,
        "meta_classification_type": "U",
        "meta_norad_cat_id": 40315,
        "meta_element_set_no": 999,
        "meta_rev_at_epoch": 8591,
        "meta_bstar": 0,
        "meta_mean_motion_dot": 9.7e-07,
        "meta_mean_motion_ddot": 0,
        "tle_line1": "1 40315U 14075A   25348.41258525  .00000097  00000+0  00000+0 0  9998",
        "tle_line2": "2 40315  63.6139 196.7672 0020113 204.2903 155.6894  2.13101427 85910"
      },
      "geometry": {
        "type": "Point",
        "coordinates": [
          36.57821208426258,
          -34.48773603089975
        ]
      }
    }
  ]
}